LUMELITE-4              
1 56309U 23057B   26068.50336543  .00014689  00000+0  62211-3 0  9993
2 56309   9.9925  94.5306 0004008  70.4016 289.6633 15.19877406158858
ORBASTRO-TR5            
1 63236U 25052AC  26068.67620609  .00006976  00000+0  31434-3 0  9997
2 63236  97.3978 322.1193 0005663 133.5462 226.6245 15.21342195 54683
